STARLINK-2025
1 27607C 21009BM  21325.16039758  .00009115  00000-0  61090-3 0  3256
2 27607  53.0515 217.5163 0002009  68.3212  45.7694 15.06378903    11
